{
  "type": "FeatureCollection",
  "features": [
    {
      "type": "Feature",
      "properties": {
        "norad_id": 37846,
        "name": "GSAT0101 (GALILEO-PFM)",
        "group": "gnss",
        "lat": -8.097605367463576,
        "lon": 171.97098258332372,
        "alt_km": 23228.796050208468,
        "timestamp": "2025-12-17T21:39:45.932724+00:00",
        "meta_object_name": "GSAT0101 (GALILEO-PFM)",
        "meta_object_id": "2011-060A",
        "meta_epoch": "2025-12-15T20:00:41.819904",
        "meta_mean_motion": 1.70475823,
        "meta_eccentricity": 0.00030775,
        "meta_inclination": 57.052,
        "meta_ra_of_asc_node": 346.7358,
        "meta_arg_of_pericenter": 316.7426,
        "meta_mean_anomaly": 43.2514,
        "meta_ephemeris_type": 0,
        "meta_classification_type": "U",
        "meta_norad_cat_id": 37846,
        "meta_element_set_no": 999,
        "meta_rev_at_epoch": 8799,
        "meta_bstar": 0,
        "meta_mean_motion_dot": -8.2e-07,
        "meta_mean_motion_ddot": 0,
        "tle_line1": "1 37846U 11060A   25349.83381736 -.00000082  00000+0  00000+0 0  9997",
        "tle_line2": "2 37846  57.0520 346.7358 0003077 316.7426  43.2514  1.70475823 87990"
      },
      "geometry": {
        "type": "Point",
        "coordinates": [
          171.97098258332372,
          -8.097605367463576
        ]
      }
    },
    {
      "type": "Feature",
      "properties": {
        "norad_id": 37847,
        "name": "GSAT0102 (GALILEO-FM2)",
        "group": "gnss",
        "lat": -43.47671385785162,
        "lon": -155.36874552443624,
        "alt_km": 23223.39251605879,
        "timestamp": "2025-12-17T21:39:45.932735+00:00",
        "meta_object_name": "GSAT0102 (GALILEO-FM2)",
        "meta_object_id": "2011-060B",
        "meta_epoch": "2025-12-16T01:10:38.655264",
        "meta_mean_motion": 1.7047605,
        "meta_eccentricity": 0.00050527,
        "meta_inclination": 57.0527,
        "meta_ra_of_asc_node": 346.7304,
        "meta_arg_of_pericenter": 311.0932,
        "meta_mean_anomaly": 226.4679,
        "meta_ephemeris_type": 0,
        "meta_classification_type": "U",
        "meta_norad_cat_id": 37847,
        "meta_element_set_no": 999,
        "meta_rev_at_epoch": 8800,
        "meta_bstar": 0,
        "meta_mean_motion_dot": -8.2e-07,
        "meta_mean_motion_ddot": 0,
        "tle_line1": "1 37847U 11060B   25350.04905851 -.00000082  00000+0  00000+0 0  9993",
        "tle_line2": "2 37847  57.0527 346.7304 0005052 311.0932 226.4679  1.70476050 88007"
      },
      "geometry": {
        "type": "Point",
        "coordinates": [
          -155.36874552443624,
          -43.47671385785162
        ]
      }
    },
    {
      "type": "Feature",
      "properties": {
        "norad_id": 37867,
        "name": "COSMOS 2476 (744)",
        "group": "gnss",
        "lat": 42.89345110907774,
        "lon": 104.44154024369301,
        "alt_km": 19186.662023930974,
        "timestamp": "2025-12-17T21:39:45.932745+00:00",
        "meta_object_name": "COSMOS 2476 (744)",
        "meta_object_id": "2011-064A",
        "meta_epoch": "2025-12-17T08:37:38.728128",
        "meta_mean_motion": 2.13103706,
        "meta_eccentricity": 0.00243783,
        "meta_inclination": 65.1645,
        "meta_ra_of_asc_node": 79.0153,
        "meta_arg_of_pericenter": 234.8774,
        "meta_mean_anomaly": 116.9996,
        "meta_ephemeris_type": 0,
        "meta_classification_type": "U",
        "meta_norad_cat_id": 37867,
        "meta_element_set_no": 999,
        "meta_rev_at_epoch": 10988,
        "meta_bstar": 0,
        "meta_mean_motion_dot": -4.8e-07,
        "meta_mean_motion_ddot": 0,
        "tle_line1": "1 37867U 11064A   25351.35947602 -.00000048  00000+0  00000+0 0  9996",
        "tle_line2": "2 37867  65.1645  79.0153 0024378 234.8774 116.9996  2.13103706109884"
      },
      "geometry": {
        "type": "Point",
        "coordinates": [
          104.44154024369301,
          42.89345110907774
        ]
      }
    },
    {
      "type": "Feature",
      "properties": {
        "norad_id": 37868,
        "name": "COSMOS 2477 (745)",
        "group": "gnss",
        "lat": -43.63427723229324,
        "lon": -74.77348680350556,
        "alt_km": 19081.381635263857,
        "timestamp": "2025-12-17T21:39:45.932755+00:00",
        "meta_object_name": "COSMOS 2477 (745)",
        "meta_object_id": "2011-064B",
        "meta_epoch": "2025-12-15T06:06:12.573216",
        "meta_mean_motion": 2.1310289,
        "meta_eccentricity": 0.00211455,
        "meta_inclination": 65.1707,
        "meta_ra_of_asc_node": 79.1637,
        "meta_arg_of_pericenter": 234.5873,
        "meta_mean_anomaly": 123.1925,
        "meta_ephemeris_type": 0,
        "meta_classification_type": "U",
        "meta_norad_cat_id": 37868,
        "meta_element_set_no": 999,
        "meta_rev_at_epoch": 10983,
        "meta_bstar": 0,
        "meta_mean_motion_dot": -5.6e-07,
        "meta_mean_motion_ddot": 0,
        "tle_line1": "1 37868U 11064B   25349.25431219 -.00000056  00000+0  00000+0 0  9994",
        "tle_line2": "2 37868  65.1707  79.1637 0021145 234.5873 123.1925  2.13102890109838"
      },
      "geometry": {
        "type": "Point",
        "coordinates": [
          -74.77348680350556,
          -43.63427723229324
        ]
      }
    },
    {
      "type": "Feature",
      "properties": {
        "norad_id": 37869,
        "name": "COSMOS 2475 (743)",
        "group": "gnss",
        "lat": -4.685856811973338,
        "lon": -98.72689290656554,
        "alt_km": 19101.002482885055,
        "timestamp": "2025-12-17T21:39:45.932774+00:00",
        "meta_object_name": "COSMOS 2475 (743)",
        "meta_object_id": "2011-064C",
        "meta_epoch": "2025-12-16T17:15:16.173216",
        "meta_mean_motion": 2.1310159,
        "meta_eccentricity": 0.00263578,
        "meta_inclination": 65.1784,
        "meta_ra_of_asc_node": 79.1342,
        "meta_arg_of_pericenter": 248.7608,
        "meta_mean_anomaly": 108.5583,
        "meta_ephemeris_type": 0,
        "meta_classification_type": "U",
        "meta_norad_cat_id": 37869,
        "meta_element_set_no": 999,
        "meta_rev_at_epoch": 10987,
        "meta_bstar": 0,
        "meta_mean_motion_dot": -5.2e-07,
        "meta_mean_motion_ddot": 0,
        "tle_line1": "1 37869U 11064C   25350.71893719 -.00000052  00000+0  00000+0 0  9991",
        "tle_line2": "2 37869  65.1784  79.1342 0026357 248.7608 108.5583  2.13101590109877"
      },
      "geometry": {
        "type": "Point",
        "coordinates": [
          -98.72689290656554,
          -4.685856811973338
        ]
      }
    },
    {
      "type": "Feature",
      "properties": {
        "norad_id": 37948,
        "name": "BEIDOU-2 IGSO-5 (C10)",
        "group": "gnss",
        "lat": -35.54018005809265,
        "lon": 133.7066570774518,
        "alt_km": 35328.65598336574,
        "timestamp": "2025-12-17T21:39:45.932785+00:00",
        "meta_object_name": "BEIDOU-2 IGSO-5 (C10)",
        "meta_object_id": "2011-073A",
        "meta_epoch": "2025-12-17T16:24:35.912736",
        "meta_mean_motion": 1.00290385,
        "meta_eccentricity": 0.01100136,
        "meta_inclination": 48.0109,
        "meta_ra_of_asc_node": 273.7976,
        "meta_arg_of_pericenter": 222.3587,
        "meta_mean_anomaly": 289.8191,
        "meta_ephemeris_type": 0,
        "meta_classification_type": "U",
        "meta_norad_cat_id": 37948,
        "meta_element_set_no": 999,
        "meta_rev_at_epoch": 5131,
        "meta_bstar": 0,
        "meta_mean_motion_dot": -1.81e-06,
        "meta_mean_motion_ddot": 0,
        "tle_line1": "1 37948U 11073A   25351.68374899 -.00000181  00000+0  00000+0 0  9992",
        "tle_line2": "2 37948  48.0109 273.7976 0110013 222.3587 289.8191  1.00290385 51317"
      },
      "geometry": {
        "type": "Point",
        "coordinates": [
          133.7066570774518,
          -35.54018005809265
        ]
      }
    },
    {
      "type": "Feature",
      "properties": {
        "norad_id": 37951,
        "name": "LUCH 5A (SDCM/PRN 140)",
        "group": "gnss",
        "lat": 5.044685398981838,
        "lon": -140.90175256193461,
        "alt_km": 35767.43954257827,
        "timestamp": "2025-12-17T21:39:45.932795+00:00",
        "meta_object_name": "LUCH 5A (SDCM/PRN 140)",
        "meta_object_id": "2011-074B",
        "meta_epoch": "2025-12-17T12:36:44.335296",
        "meta_mean_motion": 1.00275835,
        "meta_eccentricity": 0.000532,
        "meta_inclination": 8.2913,
        "meta_ra_of_asc_node": 76.5161,
        "meta_arg_of_pericenter": 183.8812,
        "meta_mean_anomaly": 182.3148,
        "meta_ephemeris_type": 0,
        "meta_classification_type": "U",
        "meta_norad_cat_id": 37951,
        "meta_element_set_no": 999,
        "meta_rev_at_epoch": 5123,
        "meta_bstar": 0,
        "meta_mean_motion_dot": -3e-07,
        "meta_mean_motion_ddot": 0,
        "tle_line1": "1 37951U 11074B   25351.52551314 -.00000030  00000+0  00000+0 0  9992",
        "tle_line2": "2 37951   8.2913  76.5161 0005320 183.8812 182.3148  1.00275835 51236"
      },
      "geometry": {
        "type": "Point",
        "coordinates": [
          -140.90175256193461,
          5.044685398981838
        ]
      }
    }
  ]
}